{
    "links": {
        "self": "http://www.neowsapp.com/rest/v1/neo/3655396?api_key=iIulBulltgU6a56xZRHN4H3l9WmuAYTsLGpBGhQ2"
    },
    "id": "3655396",
    "neo_reference_id": "3655396",
    "name": "(2013 YQ2)",
    "designation": "2013 YQ2",
    "nasa_jpl_url": "http://ssd.jpl.nasa.gov/sbdb.cgi?sstr=3655396",
    "absolute_magnitude_h": 23.7,
    "estimated_diameter": {
        "kilometers": {
            "estimated_diameter_min": 0.0483676488,
            "estimated_diameter_max": 0.1081533507
        },
        "meters": {
            "estimated_diameter_min": 48.3676488219,
            "estimated_diameter_max": 108.1533506775
        },
        "miles": {
            "estimated_diameter_min": 0.0300542543,
            "estimated_diameter_max": 0.0672033557
        },
        "feet": {
            "estimated_diameter_min": 158.6865169607,
            "estimated_diameter_max": 354.8338390368
        }
    },
    "is_potentially_hazardous_asteroid": false,
    "close_approach_data": [
        {
            "close_approach_date": "1957-10-16",
            "close_approach_date_full": "1957-Oct-16 12:45",
            "epoch_date_close_approach": -385298100000,
            "relative_velocity": {
                "kilometers_per_second": "11.6252506343",
                "kilometers_per_hour": "41850.9022833623",
                "miles_per_hour": "26004.5231437925"
            },
            "miss_distance": {
                "astronomical": "0.1152226897",
                "lunar": "44.8216262933",
                "kilometers": "17237068.954790939",
                "miles": "10710617.9905513982"
            },
            "orbiting_body": "Earth"
        },
        {
            "close_approach_date": "1959-09-05",
            "close_approach_date_full": "1959-Sep-05 11:51",
            "epoch_date_close_approach": -325771740000,
            "relative_velocity": {
                "kilometers_per_second": "6.0905946123",
                "kilometers_per_hour": "21926.1406044214",
                "miles_per_hour": "13624.0510883417"
            },
            "miss_distance": {
                "astronomical": "1.7221892173",
                "lunar": "669.9316055297",
                "kilometers": "257635838.645047151",
                "miles": "160087486.7786306438"
            },
            "orbiting_body": "Juptr"
        },
        {
            "close_approach_date": "2013-12-21",
            "close_approach_date_full": "2013-Dec-21 04:50",
            "epoch_date_close_approach": 1387601400000,
            "relative_velocity": {
                "kilometers_per_second": "11.2232151753",
                "kilometers_per_hour": "40403.5746311563",
                "miles_per_hour": "25105.210025676"
            },
            "miss_distance": {
                "astronomical": "0.0109113808",
                "lunar": "4.2445271312",
                "kilometers": "1632319.326438896",
                "miles": "1014276.1968369248"
            },
            "orbiting_body": "Earth"
        },
        {
            "close_approach_date": "2018-01-12",
            "close_approach_date_full": "2018-Jan-12 01:19",
            "epoch_date_close_approach": 1515719940000,
            "relative_velocity": {
                "kilometers_per_second": "17.9969342407",
                "kilometers_per_hour": "64788.9632666784",
                "miles_per_hour": "40257.3422031203"
            },
            "miss_distance": {
                "astronomical": "0.2158586992",
                "lunar": "83.9690339888",
                "kilometers": "32292001.621290704",
                "miles": "20065319.3662475552"
            },
            "orbiting_body": "Earth"
        }
    ],
    "orbital_data": {
        "orbit_id": "9",
        "orbit_determination_date": "2017-04-06 08:43:13",
        "first_observation_date": "2013-12-24",
        "last_observation_date": "2014-01-11",
        "data_arc_in_days": 18,
        "observations_used": 71,
        "orbit_uncertainty": "7",
        "minimum_orbit_intersection": ".00991279",
        "jupiter_tisserand_invariant": "3.125",
        "epoch_osculation": "2459000.5",
        "eccentricity": ".6369983541252848",
        "semi_major_axis": "2.539814437231562",
        "inclination": "1.892449873684571",
        "ascending_node_longitude": "70.48606873288921",
        "orbital_period": "1478.432184207181",
        "perihelion_distance": ".9219568209314205",
        "perihelion_argument": "344.9247538615768",
        "aphelion_distance": "4.157672053531703",
        "perihelion_time": "2459574.491406942267",
        "mean_anomaly": "220.2324078800904",
        "mean_motion": ".2435011925779013",
        "equinox": "J2000",
        "orbit_class": {
            "orbit_class_type": "APO",
            "orbit_class_description": "Near-Earth asteroid orbits which cross the Earth’s orbit similar to that of 1862 Apollo",
            "orbit_class_range": "a (semi-major axis) > 1.0 AU; q (perihelion) < 1.017 AU"
        }
    },
    "is_sentry_object": false
}